#aV2019 11 14  0  0  0.00000000     288 DD+AD WGS84 FIT  NGA
## 2079 345600.00000000   300.00000000 58801 0.0000000000000
+   32     1  2  3  4  5  6  7  8  9 10 11 12 13 14 15 16 17
+         18 19 20 21 22 23 24 25 26 27 28 29 30 31 32  0  0
+          0  0  0  0  0  0  0  0  0  0  0  0  0  0  0  0  0
+          0  0  0  0  0  0  0  0  0  0  0  0  0  0  0  0  0
+          0  0  0  0  0  0  0  0  0  0  0  0  0  0  0  0  0
++         2  2  2  2  2  2  2  2  2  2  2  2  2  2  2  2  2
++         2  2  2  2  2  2  2  2  2  2  2  2  2  2  2  0  0
++         0  0  0  0  0  0  0  0  0  0  0  0  0  0  0  0  0
++         0  0  0  0  0  0  0  0  0  0  0  0  0  0  0  0  0
++         0  0  0  0  0  0  0  0  0  0  0  0  0  0  0  0  0
%c cc cc ccc ccc cccc cccc cccc cccc ccccc ccccc ccccc ccccc
%c cc cc ccc ccc cccc cccc cccc cccc ccccc ccccc ccccc ccccc
%f  0.0000000  0.000000000  0.00000000000  0.000000000000000
%f  0.0000000  0.000000000  0.00000000000  0.000000000000000
%i    0    0    0    0      0      0      0      0         0
%i    0    0    0    0      0      0      0      0         0
/*      NGA, ST. LOUIS,MO.                                  
/*   EPHEMERIS COMPUTED FROM 2 DAYS OF DATA                 
/*   EPOCHA v5 SMOOTHER                                     
/*   G1762 IERS2010 SATAF SATAPC                            
*  2019 11 14 20 50  0.00000000
P  1 -18297.235656  -7963.432007  17483.824433   -197.323311                    
V  1 -10248.634436 -20001.079410 -19299.753591     -0.126894                    
P  2  14110.912579  22555.722617   1598.520826   -346.789770                    
V  2  -3040.741162    536.883097  31515.246362     -0.076715                    
P  3 -17850.745426   4875.228442  18959.886085    -36.720049                    
V  3  10649.822381 -21802.632834  15669.674899     -0.058000                    
P  4 -21896.084913   8270.456890 -12429.091777     -9.073695                    
V  4 -15845.664503  -2710.982686  26042.530508     -0.040318                    
P  5   8396.561653  15117.590426 -20243.067087     -3.456959                    
V  5 -12899.805478  22019.417713  11362.585172     -0.004654                    
P  6   3622.538678  22981.012453  12835.715975   -123.675615                    
V  6  -9894.114868 -12967.535963  26127.489519     -0.119696                    
P  7 -12207.991676   9184.720113 -21420.307799   -148.823935                    
V  7 -14326.186804 -23971.402777  -2555.336868     -0.081298                    
P  8 -24037.273294  -6079.517577  -9783.052802    -13.371504                    
V  8  12333.412538  -2421.085625 -28478.840185     -0.012887                    
P  9 -23230.850332   7896.696098 -10229.678215    -83.390355                    
V  9 -12993.898117  -2359.943988  27820.512241     -0.097435                    
P 10  10843.906502 -23913.873402   3148.953055   -134.601349                    
V 10   4445.215613  -2037.448196 -31630.397585     -0.148193                    
P 11 -23383.091710  -5702.000813  10381.069867   -448.106285                    
V 11  -9548.012779 -11214.432112 -26697.466167      0.111475                    
P 12  15903.629310   1379.049712  20978.934298    183.511719                    
V 12 -14253.598034  23085.897884   9350.497987     -0.039653                    
P 13  17240.948524  12870.093284 -15742.630572    -32.818931                    
V 13 -19794.236882   -514.089127 -22198.114245      0.023202                    
P 14  -4030.897137 -15417.303341  21599.996913    -50.486328                    
V 14  26603.965191   1392.744828   5868.906218      0.021355                    
P 15  24889.669596   4150.297039  -9185.004601   -272.650442                    
V 15 -10782.751709   4329.416084 -27785.447983      0.026837                    
P 16  -4879.522484 -16719.004872 -20106.312309    -93.168928                    
V 16  15114.329800 -20183.598954  13668.286977     -0.037442                    
P 17  -8053.578524  13960.160818  21519.742473    162.988555                    
V 17 -26241.215273  -1695.983490  -8971.464332      0.069592                    
P 18 -18976.630357 -14958.737518  10627.959964    100.160309                    
V 18  -5697.829821 -13295.396145 -27493.998376      0.025458                    
P 19   -161.275288  14638.220880  21867.280870   -239.755873                    
V 19 -28313.081373  -2441.294710   1425.443686      0.051925                    
P 20  14619.485882 -20670.251260  -7795.678519    527.461871                    
V 20   -350.338933  10495.807826 -29056.984164      0.000923                    
P 21   8332.601921 -13673.730258 -20438.661735    -86.093925                    
V 21  16310.359656  22497.230799  -7897.281626      0.059740                    
P 22 -15913.798016  -3377.576811  21202.095637   -771.643217                    
V 22  10644.132712 -24344.515614   4254.410231     -0.025695                    
P 23 -26752.692604    951.693918    -84.766730   -155.526347                    
V 23   -616.280113  -3025.625294  31110.868891      0.022496                    
P 24  19696.478580   9099.382848  15378.003020     -4.895499                    
V 24   9123.368721  17677.662669 -21544.693116     -0.006046                    
P 25  18176.409932 -13840.805522  13107.106868    -17.116978                    
V 25  -6383.385511  16014.553576  25602.922778     -0.003512                    
P 26   1506.279690 -23003.789332 -13030.831712     84.253224                    
V 26  10083.980775 -13484.826272  25198.470790      0.083612                    
P 27 -14874.358723 -12263.944611 -18518.960998   -119.913225                    
V 27  23108.936970  -1339.672465 -17480.761338     -0.119179                    
P 28 -12010.934076  23349.184125   5003.141803    755.081497                    
V 28  -4787.530207   3443.341767 -31268.396837     -0.015449                    
P 29  24387.165239  -4876.197761  -9389.437459     44.252865                    
V 29  11723.261123   2457.221436  29241.275731     -0.100334                    
P 30  -4072.693176  19389.148350 -17566.733725    -83.897206                    
V 30 -12582.698169 -18778.453937 -17971.403328     -0.084121                    
P 31  -4590.229220 -23632.619898  10670.893652     -3.199599                    
V 31   9173.041809  10620.117410  27866.154884     -0.025754                    
P 32   7130.049330 -14852.390074  20867.102390    124.985048                    
V 32  26413.928025    375.766150  -8910.865157      0.121539                    
EOF
